STARLINK-1495
1 25761C 20038AH  21325.12647896  .00088111  00000-0  12212-2 0  3254
2 25761  53.0563  36.1923 0002563  42.7093 205.0600 15.56355058    19
